{"fetched_at":"2026-07-12T05:53:05.850Z","source":"https://celestrak.org/NORAD/elements/gp.php?NAME=NUSAT&FORMAT=JSON","constellation":"satellogic","records":[{"OBJECT_NAME":"NUSAT-47","OBJECT_ID":"2025-276CF","EPOCH":"2026-07-11T18:40:58.048032","CLASSIFICATION_TYPE":"U","MEAN_MOTION":15.20561598,"ECCENTRICITY":0.0000176,"INCLINATION":97.4187,"RA_OF_ASC_NODE":265.998,"ARG_OF_PERICENTER":256.7831,"MEAN_ANOMALY":103.3385,"EPHEMERIS_TYPE":0,"NORAD_CAT_ID":66743,"ELEMENT_SET_NO":999,"REV_AT_EPOCH":3416,"BSTAR":0.00015284,"MEAN_MOTION_DOT":0.00003277,"MEAN_MOTION_DDOT":0},{"OBJECT_NAME":"NUSAT-53 (JANE GOODALL)","OBJECT_ID":"2026-067S","EPOCH":"2026-07-11T20:12:06.062112","CLASSIFICATION_TYPE":"U","MEAN_MOTION":15.18828266,"ECCENTRICITY":0.0001022,"INCLINATION":97.4567,"RA_OF_ASC_NODE":151.0055,"ARG_OF_PERICENTER":1.1271,"MEAN_ANOMALY":358.9966,"EPHEMERIS_TYPE":0,"NORAD_CAT_ID":68432,"ELEMENT_SET_NO":999,"REV_AT_EPOCH":1568,"BSTAR":0.00016846,"MEAN_MOTION_DOT":0.00003439,"MEAN_MOTION_DDOT":0},{"OBJECT_NAME":"NUSAT-54 (BRANCA MARQUES)","OBJECT_ID":"2026-067AC","EPOCH":"2026-07-11T19:57:19.376064","CLASSIFICATION_TYPE":"U","MEAN_MOTION":15.17976416,"ECCENTRICITY":0.0004194,"INCLINATION":97.4549,"RA_OF_ASC_NODE":150.8436,"ARG_OF_PERICENTER":11.4229,"MEAN_ANOMALY":348.7099,"EPHEMERIS_TYPE":0,"NORAD_CAT_ID":68442,"ELEMENT_SET_NO":999,"REV_AT_EPOCH":1567,"BSTAR":0.00016913,"MEAN_MOTION_DOT":0.00003369,"MEAN_MOTION_DDOT":0}]}
